{
  "type": "FeatureCollection",
  "features": [
    {
      "type": "Feature",
      "properties": {
        "norad_id": 38001,
        "name": "COSMOS 2251 DEB",
        "group": "cosmos-2251-debris",
        "lat": -73.66440904771635,
        "lon": 34.167407238385636,
        "alt_km": 595.8649202921661,
        "timestamp": "2025-12-10T21:43:22.489138+00:00",
        "meta_object_name": "COSMOS 2251 DEB",
        "meta_object_id": "1993-036BRC",
        "meta_epoch": "2025-12-09T17:00:16.350912",
        "meta_mean_motion": 14.79018783,
        "meta_eccentricity": 0.00654872,
        "meta_inclination": 74.0007,
        "meta_ra_of_asc_node": 138.302,
        "meta_arg_of_pericenter": 288.3389,
        "meta_mean_anomaly": 89.9647,
        "meta_ephemeris_type": 0,
        "meta_classification_type": "U",
        "meta_norad_cat_id": 38001,
        "meta_element_set_no": 999,
        "meta_rev_at_epoch": 74663,
        "meta_bstar": 0.001203292,
        "meta_mean_motion_dot": 9.198e-05,
        "meta_mean_motion_ddot": 0,
        "tle_line1": "1 38001U 93036BRC 25343.70852258  .00009198  00000+0  12033-2 0  9994",
        "tle_line2": "2 38001  74.0007 138.3020 0065487 288.3389  89.9647 14.79018783746637"
      },
      "geometry": {
        "type": "Point",
        "coordinates": [
          34.167407238385636,
          -73.66440904771635
        ]
      }
    },
    {
      "type": "Feature",
      "properties": {
        "norad_id": 38006,
        "name": "COSMOS 2251 DEB",
        "group": "cosmos-2251-debris",
        "lat": -32.292118805509375,
        "lon": 30.976704540704844,
        "alt_km": 694.2047159191479,
        "timestamp": "2025-12-10T21:43:22.489150+00:00",
        "meta_object_name": "COSMOS 2251 DEB",
        "meta_object_id": "1993-036BRH",
        "meta_epoch": "2025-12-10T03:36:37.956384",
        "meta_mean_motion": 14.45867865,
        "meta_eccentricity": 0.00758537,
        "meta_inclination": 73.8744,
        "meta_ra_of_asc_node": 42.933,
        "meta_arg_of_pericenter": 348.3853,
        "meta_mean_anomaly": 11.555,
        "meta_ephemeris_type": 0,
        "meta_classification_type": "U",
        "meta_norad_cat_id": 38006,
        "meta_element_set_no": 999,
        "meta_rev_at_epoch": 62922,
        "meta_bstar": 0.0047338847,
        "meta_mean_motion_dot": 0.00017443,
        "meta_mean_motion_ddot": 0,
        "tle_line1": "1 38006U 93036BRH 25344.15043931  .00017443  00000+0  47339-2 0  9998",
        "tle_line2": "2 38006  73.8744  42.9330 0075853 348.3853  11.5550 14.45867865629227"
      },
      "geometry": {
        "type": "Point",
        "coordinates": [
          30.976704540704844,
          -32.292118805509375
        ]
      }
    },
    {
      "type": "Feature",
      "properties": {
        "norad_id": 38054,
        "name": "COSMOS 2251 DEB",
        "group": "cosmos-2251-debris",
        "lat": -72.3573954467143,
        "lon": -155.97127907720915,
        "alt_km": 801.1394969688426,
        "timestamp": "2025-12-10T21:43:22.489160+00:00",
        "meta_object_name": "COSMOS 2251 DEB",
        "meta_object_id": "1993-036BRL",
        "meta_epoch": "2025-12-06T19:35:06.065952",
        "meta_mean_motion": 13.62293123,
        "meta_eccentricity": 0.0360398,
        "meta_inclination": 73.9587,
        "meta_ra_of_asc_node": 275.4844,
        "meta_arg_of_pericenter": 254.7432,
        "meta_mean_anomaly": 133.9151,
        "meta_ephemeris_type": 0,
        "meta_classification_type": "U",
        "meta_norad_cat_id": 38054,
        "meta_element_set_no": 999,
        "meta_rev_at_epoch": 67099,
        "meta_bstar": 0.0049752628,
        "meta_mean_motion_dot": 5.934e-05,
        "meta_mean_motion_ddot": 0,
        "tle_line1": "1 38054U 93036BRL 25340.81604243  .00005934  00000+0  49753-2 0  9993",
        "tle_line2": "2 38054  73.9587 275.4844 0360398 254.7432 133.9151 13.62293123670997"
      },
      "geometry": {
        "type": "Point",
        "coordinates": [
          -155.97127907720915,
          -72.3573954467143
        ]
      }
    },
    {
      "type": "Feature",
      "properties": {
        "norad_id": 38055,
        "name": "COSMOS 2251 DEB",
        "group": "cosmos-2251-debris",
        "lat": 8.66563919806029,
        "lon": 27.85497098315024,
        "alt_km": 685.4699515615594,
        "timestamp": "2025-12-10T21:43:22.489173+00:00",
        "meta_object_name": "COSMOS 2251 DEB",
        "meta_object_id": "1993-036BRM",
        "meta_epoch": "2025-12-10T08:27:42.055776",
        "meta_mean_motion": 14.76933211,
        "meta_eccentricity": 0.00657477,
        "meta_inclination": 74.0087,
        "meta_ra_of_asc_node": 211.4445,
        "meta_arg_of_pericenter": 339.5149,
        "meta_mean_anomaly": 134.8402,
        "meta_ephemeris_type": 0,
        "meta_classification_type": "U",
        "meta_norad_cat_id": 38055,
        "meta_element_set_no": 999,
        "meta_rev_at_epoch": 60647,
        "meta_bstar": 0.0011717243,
        "meta_mean_motion_dot": 8.521e-05,
        "meta_mean_motion_ddot": 0,
        "tle_line1": "1 38055U 93036BRM 25344.35257009  .00008521  00000+0  11717-2 0  9995",
        "tle_line2": "2 38055  74.0087 211.4445 0065747 339.5149 134.8402 14.76933211606475"
      },
      "geometry": {
        "type": "Point",
        "coordinates": [
          27.85497098315024,
          8.66563919806029
        ]
      }
    },
    {
      "type": "Feature",
      "properties": {
        "norad_id": 38060,
        "name": "COSMOS 2251 DEB",
        "group": "cosmos-2251-debris",
        "lat": 53.53931466077518,
        "lon": 96.04675318586796,
        "alt_km": 666.4897354140339,
        "timestamp": "2025-12-10T21:43:22.489185+00:00",
        "meta_object_name": "COSMOS 2251 DEB",
        "meta_object_id": "1993-036BRS",
        "meta_epoch": "2025-12-08T15:02:26.401344",
        "meta_mean_motion": 14.63819883,
        "meta_eccentricity": 0.0057903,
        "meta_inclination": 74.0428,
        "meta_ra_of_asc_node": 303.2001,
        "meta_arg_of_pericenter": 50.388,
        "meta_mean_anomaly": 310.2378,
        "meta_ephemeris_type": 0,
        "meta_classification_type": "U",
        "meta_norad_cat_id": 38060,
        "meta_element_set_no": 999,
        "meta_rev_at_epoch": 71904,
        "meta_bstar": 0.0010404,
        "meta_mean_motion_dot": 5.538e-05,
        "meta_mean_motion_ddot": 0,
        "tle_line1": "1 38060U 93036BRS 25342.62669446  .00005538  00000+0  10404-2 0  9998",
        "tle_line2": "2 38060  74.0428 303.2001 0057903  50.3880 310.2378 14.63819883719047"
      },
      "geometry": {
        "type": "Point",
        "coordinates": [
          96.04675318586796,
          53.53931466077518
        ]
      }
    },
    {
      "type": "Feature",
      "properties": {
        "norad_id": 38062,
        "name": "COSMOS 2251 DEB",
        "group": "cosmos-2251-debris",
        "lat": -61.63961061034032,
        "lon": 146.2681203541168,
        "alt_km": 598.7638217148442,
        "timestamp": "2025-12-10T21:43:22.489195+00:00",
        "meta_object_name": "COSMOS 2251 DEB",
        "meta_object_id": "1993-036BRU",
        "meta_epoch": "2025-12-06T04:12:38.753856",
        "meta_mean_motion": 14.94290132,
        "meta_eccentricity": 0.00122346,
        "meta_inclination": 74.0094,
        "meta_ra_of_asc_node": 303.7202,
        "meta_arg_of_pericenter": 72.1633,
        "meta_mean_anomaly": 298.7726,
        "meta_ephemeris_type": 0,
        "meta_classification_type": "U",
        "meta_norad_cat_id": 38062,
        "meta_element_set_no": 999,
        "meta_rev_at_epoch": 62932,
        "meta_bstar": 0.0035053507,
        "meta_mean_motion_dot": 0.00037877,
        "meta_mean_motion_ddot": 0,
        "tle_line1": "1 38062U 93036BRU 25340.17544854  .00037877  00000+0  35054-2 0  9992",
        "tle_line2": "2 38062  74.0094 303.7202 0012234  72.1633 298.7726 14.94290132629324"
      },
      "geometry": {
        "type": "Point",
        "coordinates": [
          146.2681203541168,
          -61.63961061034032
        ]
      }
    },
    {
      "type": "Feature",
      "properties": {
        "norad_id": 38064,
        "name": "COSMOS 2251 DEB",
        "group": "cosmos-2251-debris",
        "lat": 55.65347536216662,
        "lon": 152.41059576971534,
        "alt_km": 732.8806536970415,
        "timestamp": "2025-12-10T21:43:22.489205+00:00",
        "meta_object_name": "COSMOS 2251 DEB",
        "meta_object_id": "1993-036BRW",
        "meta_epoch": "2025-12-08T19:59:17.678400",
        "meta_mean_motion": 14.56247306,
        "meta_eccentricity": 0.00475278,
        "meta_inclination": 74.0223,
        "meta_ra_of_asc_node": 131.5539,
        "meta_arg_of_pericenter": 251.7836,
        "meta_mean_anomaly": 107.8151,
        "meta_ephemeris_type": 0,
        "meta_classification_type": "U",
        "meta_norad_cat_id": 38064,
        "meta_element_set_no": 999,
        "meta_rev_at_epoch": 71808,
        "meta_bstar": 0.0016943453,
        "meta_mean_motion_dot": 7.589e-05,
        "meta_mean_motion_ddot": 0,
        "tle_line1": "1 38064U 93036BRW 25342.83284350  .00007589  00000+0  16943-2 0  9994",
        "tle_line2": "2 38064  74.0223 131.5539 0047527 251.7836 107.8151 14.56247306718080"
      },
      "geometry": {
        "type": "Point",
        "coordinates": [
          152.41059576971534,
          55.65347536216662
        ]
      }
    }
  ]
}